GLOBALSTAR M001 [-]     
1 25162U 98008A   23265.52075976 -.00000086  00000+0  81171-4 0  9996
2 25162  52.0062  17.4877 0001521  24.6944 104.0231 12.38167631165321
GLOBALSTAR M004 [-]     
1 25163U 98008B   23266.08464838 -.00000066  00000+0  21118-3 0  9990
2 25163  51.9989 185.5121 0003077 336.0192 128.5665 12.63338456181761
GLOBALSTAR M002 [-]     
1 25164U 98008C   23266.03747021 -.00000092  00000+0 -29609-3 0  9997
2 25164  52.0048  27.6992 0001944  77.2329 282.8708 11.61495063110566
GLOBALSTAR M003 [-]     
1 25165U 98008D   23265.91294104  .00000025  00000+0  12189-2 0  9991
2 25165  51.9725 122.5735 0008520  97.7010 275.7848 12.11938775156438
GLOBALSTAR M014 [-]     
1 25306U 98023A   23266.08045258 -.00000046  00000+0  58411-3 0  9991
2 25306  51.9860 324.1275 0000496 264.5188  97.3177 11.65459783117343
GLOBALSTAR M006 [-]     
1 25307U 98023B   23265.66384687 -.00000060  00000+0  31165-3 0  9990
2 25307  51.9978 353.9746 0003820  57.2243  91.9230 11.58153899143429
GLOBALSTAR M015 [-]     
1 25308U 98023C   23265.84269097 -.00000057  00000+0  36616-3 0  9990
2 25308  51.9827  62.9795 0012938  33.9701 115.4291 11.48849678121661
GLOBALSTAR M008 [-]     
1 25309U 98023D   23265.89152366 -.00000059  00000+0  29117-3 0  9996
2 25309  51.9952 234.0714 0002329 287.1769  90.2607 12.36028007159535
